neighborhood,shelter_no,waze_link,area,type,capacity,operator,latitude,longiude,address_label,Administration,neighborhood,name_other,google_maps_link
Beit Yisrael,841,"https://www.waze.com/ul?ll=31.79069840,35.22133660&amp;navigate=yes&amp;zoom=16",100,,80,"""Mosiyof"" synagogue",31.79120318,35.22139609,25 Yoel St.,,,HaBucharim - Beit Yisrael,"https://www.google.com/maps/dir//31.7906984,35.2213366+(25+Yoel+St.)"
Beit Yisrael,908,"https://www.waze.com/ul?ll=31.79186860,35.22323570&amp;navigate=yes&amp;zoom=16",100,,80,Bucharim Community Administration,31.79208743,35.2232357,22 Shimshon Polanski St.,,,HaBucharim - Beit Yisrael,"https://www.google.com/maps/dir//31.7918686,35.2232357+(22+Shimshon+Polanski+St.)"
Talbiya,Public Shelter No. 807,"https://www.waze.com/ul?ll=31.77001220,35.21782930&amp;navigate=yes&amp;zoom=16",115,,92,"Emergency and Security Division, Jerusalem Municipality",31.77014346,35.21700218,7 Benjamin Disraeli St.,,,Talbiya - Komemiyut,"https://www.google.com/maps/dir//31.7700122,35.2178293+(7+Benjamin+Disraeli+St.)"
Sanhedria,Public Shelter No.602,"https://www.waze.com/ul?ll=31.79747430,35.21873600&amp;navigate=yes&amp;zoom=16",100,Shelter,80,"""Hasidei Morditz"" yeshiva",31.79755634,35.21872527,6 HaSanhedrin St.,,,Sanhedria,"https://www.google.com/maps/dir//31.7974743,35.218736+(6+HaSanhedrin+St.)"
Shmuel HaNavi ,Public Shelter No.604,"https://www.waze.com/ul?ll=31.79568800,35.21879420&amp;navigate=yes&amp;zoom=16",100,,80,"Emergency and Security Division, Jerusalem Municipality",31.795412149351,35.2188737,8 Shimon Hacham St.,,,Shmuel HaNavi,"https://www.google.com/maps/dir//31.795688,35.2187942+(8+Shimon+Hacham+St.)"
Romema,Public Shelter No.606,"https://www.waze.com/ul?ll=31.79558840,35.21449380&amp;navigate=yes&amp;zoom=16",80,,64,"Emergency and Security Division, Jerusalem Municipality",31.795624849267,35.2144723462723,1 Pnina St.,,,Romema,"https://www.google.com/maps/dir//31.7955884,35.2144938+(1+Pnina+St.)"
Bucharim ,Public Shelter No.609,"https://www.waze.com/ul?ll=31.79223540,35.21767550&amp;navigate=yes&amp;zoom=16?ll=31.79223540,35.21767550&amp;navigate=yes&amp;zoom=16",250,Shelter ,200,"Emergency and Security Division, Jerusalem Municipality",31.79229011,35.2176755,23 Yisa Bracha St.,,,HaBucharim - Beit Yisrael,"https://www.google.com/maps/dir//31.7922354,35.2176755+(23+Yisa+Bracha+St.)"
Bukharim,Public Shelter No.612,"https://www.waze.com/ul?ll=31.78984170,35.22089090&amp;navigate=yes&amp;zoom=16?ll=31.78984170,35.22089090&amp;navigate=yes&amp;zoom=16",50,Shelter,40,Karlin Hasidic community,31.78987955,35.22089024,16 Yoel St.,,,HaBucharim - Beit Yisrael,"https://www.google.com/maps/dir//31.7898417,35.2208909+(16+Yoel+St.)"
Shmuel HaNavi,Public Shelter No.616,"https://ul.waze.com/ul?place=ChIJu7pxf90pAxURLAhuO0f2chM&amp;ll=31.79247020,35.22314580&amp;navigate=yes&amp;utm_campaign=default&amp;utm_source=waze_website&amp;utm_medium=lm_share_location",,Shelter,80,"Emergency and Security Division, Jerusalem Municipality",31.7924923314014,35.22309569,61 Shmuel Hanavi St.,,,Shmuel HaNavi,"https://www.google.com/maps/dir//31.7924702,35.2231458+(61+Shmuel+Hanavi+St.)"
Shmuel HaNavi,Public Shelter No.618,"https://www.waze.com/ul?ll=31.79279960,35.22317870&amp;navigate=yes&amp;zoom=16",110,,137,"""Ohalei Ya'akov"" synagogue ",31.7928607312923,35.22315682,66 Shmuel HaNavi St.,,,Shmuel HaNavi,"https://www.google.com/maps/dir//31.7927996,35.2231787+(66+Shmuel+HaNavi+St.)"
Geula,Public Shelter No.621,"https://www.waze.com/ul?ll=31.78944350,35.21955760&amp;navigate=yes&amp;zoom=16",100,,80,"Emergency and Security Division, Jerusalem Municipality",31.78971852,35.2196259,8 Hoshe'a St.,,,Geula,"https://www.google.com/maps/dir//31.7894435,35.2195576+(8+Hoshe'a+St.)"
Mea She'arim,Public Shelter No.632,"https://www.waze.com/ul?ll=31.78564640,35.22460790&amp;navigate=yes&amp;zoom=16",80,Shelter,64,"Emergency and Security Division, Jerusalem Municipality",31.78581751,35.22459891,87 Me'a She'arim St.,,,Mea Shearim,"https://www.google.com/maps/dir//31.7856464,35.2246079+(87+Me'a+She'arim+St.)"
Geula,Public Shelter No.637,"https://www.waze.com/ul?ll=31.78767970,35.21894860&amp;navigate=yes&amp;zoom=16",100,,80,"Emergency and Security Division, Jerusalem Municipality",31.7877374,35.21997837,18 Nahman MiBreslev St.,,,Geula,"https://www.google.com/maps/dir//31.7876797,35.2189486+(18+Nahman+MiBreslev+St.)"
City Center,Public Shelter No.639,"https://www.waze.com/ul?ll=31.78554110,35.21520460&amp;navigate=yes&amp;zoom=16",250,,200,Degel Yerushalayim,31.7857051633117,35.2151295195639,2 Michel Pines St.,,,City Center,"https://www.google.com/maps/dir//31.7855411,35.2152046+(2+Michel+Pines+St.)"
Mekor Baruch,Public Shelter No.641,"https://www.waze.com/ul?ll=31.78913660,35.21372570&amp;navigate=yes&amp;zoom=16",180,,144,"""HaMeor Nativ Kodesh"" organization",31.78927688,35.21424313,25 Kfar Nahum St.,,,Makor Baruch,"https://www.google.com/maps/dir//31.7891366,35.2137257+(25+Kfar+Nahum+St.)"
Mekor Baruch ,Public Shelter No.643,"https://www.waze.com/ul?ll=31.79037470,35.21093400&amp;navigate=yes&amp;zoom=16",400,,320,"Emergency and Security Division, Jerusalem Municipality",31.79060663,35.21083998,73 Malkei Israel St.,,,Makor Baruch,"https://www.google.com/maps/dir//31.7903747,35.210934+(73+Malkei+Israel+St.)"
Mahane Yehuda,Public Shelter No.648,"https://www.waze.com/ul?ll=31.78341050,35.20962170&amp;navigate=yes&amp;zoom=16",236,,188,"Emergency and Security Division, Jerusalem Municipality",31.78336583,35.20939807,15 Nahar Prat St.,,,City Center,"https://www.google.com/maps/dir//31.7834105,35.2096217+(15+Nahar+Prat+St.)"
Nachlaot,Public Shelter No.657,"https://www.waze.com/ul?ll=31.77953990,35.21121990&amp;navigate=yes&amp;zoom=16",,,400,"Society Division of Jerusalem Municipality, ""Ariel"" youth movement ",31.77968218,35.21119735,21 Tsfat St.,,,Nachlaot - Lev Ha'ir,"https://www.google.com/maps/dir//31.7795399,35.2112199+(21+Tsfat+St.)"
Rehavia,Public Shelter No.658,"https://www.waze.com/ul?ll=31.77552590,35.21402360&amp;navigate=yes&amp;zoom=16",80,,64,"Emergency and Security Division, Jerusalem Municipality",31.7756013987167,35.2141171039459,13 Ibn Ezra St.,,,Rehavia,"https://www.google.com/maps/dir//31.7755259,35.2140236+(13+Ibn+Ezra+St.)"
Rehavia,Public Shelter No.659,"https://www.waze.com/ul?ll=31.77508850,35.21529880&amp;navigate=yes&amp;zoom=16",160,,128,"Emergency and Security Division, Jerusalem Municipality",31.7751110573696,35.2153943174367,15 Ibn Gabirol St.,,,Rehavia,"https://www.google.com/maps/dir//31.7750885,35.2152988+(15+Ibn+Gabirol+St.)"
Kiryat Shmuel,Public Shelter No.667,"https://ul.waze.com/ul?place=ChIJqRFPadfXAhURTfNMjSFVJ2A&amp;ll=31.76747800,35.21103320&amp;navigate=yes&amp;utm_campaign=default&amp;utm_source=waze_website&amp;utm_medium=lm_share_location",180,,144,"Emergency and Security Division, Jerusalem Municipality",31.7674870956754,35.2110439327826,22 HaPalmach St.,,,Kiryat Shmuel,"https://www.google.com/maps/dir//31.767478,35.2110332+(22+HaPalmach+St.)"
,Public Shelter No.670,"https://www.waze.com/ul?ll=31.76545540,35.21291140&amp;navigate=yes&amp;zoom=16",140,Shelter,112,"Emergency and Security Division, Jerusalem Municipality",31.76565605,35.21287922,9 Bostanai St.,,,German Colony,"https://www.google.com/maps/dir//31.7654554,35.2129114+(9+Bostanai+St.)"
Old Katamon,Public Shelter No.671,"https://ul.waze.com/ul?place=ChIJr7GH8dfXAhURbAYF-CIC8ro&amp;ll=31.76615520,35.21380620&amp;navigate=yes&amp;utm_campaign=default,default&amp;utm_source=waze_website,waze_website&amp;utm_medium=lm_share_location",160,,128,"Emergency and Security Division, Jerusalem Municipality",31.7661670656405,35.2138039462735,22 Kaf Tet BeNovember St.,,,"Gonenim - Katamonim, Accessible Shelter","https://www.google.com/maps/dir//31.7661552,35.2138062+(22+Kaf+Tet+BeNovember+St.)"
Emek Refaim,Public Shelter No.672,"https://www.waze.com/ul?ll=31.76495610,35.21729920&amp;navigate=yes&amp;zoom=16",150,,120,"Emergency and Security Division, Jerusalem Municipality",31.76506375,35.21736907,10 Ruth St.,,,German Colony,"https://www.google.com/maps/dir//31.7649561,35.2172992+(10+Ruth+St.)"
Emek Refaim,Public Shelter No.673,"https://www.waze.com/ul?ll=31.76346690,35.21857070&amp;navigate=yes&amp;zoom=16",114,Shelter,91,"Emergency and Security Division, Jerusalem Municipality",31.78075326,35.21629892,3 Malal St.,,,German Colony,"https://www.google.com/maps/dir//31.7634669,35.2185707+(3+Malal+St.)"
Emek Refaim ,Public Shelter No.674,"https://ul.waze.com/ul?place=ChIJSd1N-_kpAxURhzRLw1T-FdE&amp;ll=31.76597870,35.21828410&amp;navigate=yes&amp;utm_campaign=default&amp;utm_source=waze_website&amp;utm_medium=lm_share_location",150,,120,"Emergency and Security Division, Jerusalem Municipality",31.76617023,35.218209,7 Bachar St.,,,HaMoshava HaGermanit,"https://www.google.com/maps/dir//31.7659787,35.2182841+(7+Bachar+St.)"
Emek Refaim,Public Shelter No.676,"https://www.waze.com/ul?ll=31.76436110,35.22100730&amp;navigate=yes&amp;zoom=16",100,,80,"Emergency and Security Division, Jerusalem Municipality",31.76455263,35.22099657,6 Emile Zola St.,,,German Colony,"https://www.google.com/maps/dir//31.7643611,35.2210073+(6+Emile+Zola+St.)"
Emek Refaim,Public Shelter No.677,"https://www.waze.com/ul?ll=31.76362400,35.22109630&amp;navigate=yes&amp;zoom=16",290,,232,"Emergency and Security Division, Jerusalem Municipality",31.76403005,35.22126489,6 Wyndham Deedes St.,,,German Colony,"https://www.google.com/maps/dir//31.763624,35.2210963+(6+Wyndham+Deedes+St.)"
Talpiot,Public Shelter No.679,"https://www.waze.com/ul?ll=31.76344980,35.22545390&amp;navigate=yes&amp;zoom=16",200,,160,"Emergency and Security Division, Jerusalem Municipality",31.7634366619788,35.2256433,59 Hebron Rd.,,,Talpiyot - Arnona,"https://www.google.com/maps/dir//31.7634498,35.2254539+(59+Hebron+Rd.)"
Baka,Public Shelter No.681,"https://ul.waze.com/ul?place=ChIJZfgatiYoAxURNuZXb0gVP9k&amp;ll=31.75939280,35.21896830&amp;navigate=yes&amp;utm_campaign=default,default&amp;utm_source=waze_website,waze_website&amp;utm_medium=lm_share_location",100,,80,"Emergency and Security Division, Jerusalem Municipality",31.75959347,35.2189683,8 Efrayim St.,,,Baka,"https://www.google.com/maps/dir//31.7593928,35.2189683+(8+Efrayim+St.)"
Baka,Public Shelter No.682,"https://www.waze.com/ul?ll=31.75935280,35.21890230&amp;navigate=yes&amp;zoom=16",135,,108,"Emergency and Security Division, Jerusalem Municipality",31.75951784,35.2188286,14 Reuven St.,,,Baka,"https://www.google.com/maps/dir//31.7593528,35.2189023+(14+Reuven+St.)"
Baka,Public Shelter No.683,"https://www.waze.com/ul?ll=31.75982140,35.22352620&amp;navigate=yes&amp;zoom=16",170,,136,"Emergency and Security Division, Jerusalem Municipality",31.76002206,35.2235262,54 Hebron Rd.,,,Baka,"https://www.google.com/maps/dir//31.7598214,35.2235262+(54+Hebron+Rd.)"
Baka,Public Shelter No.684,"https://goo.gl/maps/DBvHPN7VXXp?ll=31.75982140,35.22352620&amp;navigate=yes&amp;zoom=16",295,,236,"Emergency and Security Division, Jerusalem Municipality",31.75875,35.22264,6 Esther HaMalka St.,,,Baka,"https://www.google.com/maps/dir//31.7598214,35.2235262+(6+Esther+HaMalka+St.)"
Baka,Public Shelter No.685,"https://www.waze.com/ul?ll=31.75702360,35.22194250&amp;navigate=yes&amp;zoom=16",200,,160,"Emergency and Security Division, Jerusalem Municipality",31.75722449,35.22199465,6 Mordechai HaYehudi St.,,,Baka,"https://www.google.com/maps/dir//31.7570236,35.2219425+(6+Mordechai+HaYehudi+St.)"
Talpiot,Public Shelter No.688,"https://www.waze.com/ul?ll=31.75255220,35.22187030&amp;navigate=yes&amp;zoom=16",200,,160,"Emergency and Security Division, Jerusalem Municipality",31.7525460893196,35.22182315,18 Efrata St.,,,Talpiyot - Arnona,"https://www.google.com/maps/dir//31.7525522,35.2218703+(18+Efrata+St.)"
Talpiot,Public Shelter No.689,"https://ul.waze.com/ul?place=EiRCZW4gR2F2cmllbCBTdCAxMCwgSmVydXNhbGVtLCBJc3JhZWwiMBIuChQKEgnhMXQxGSgDFRFagfdZzXwTkBAKKhQKEgkrfJE2GSgDFRENScS7vvQR_A&amp;ll=31.75021310,35.22088390&amp;navigate=yes&amp;utm_campaign=default,default&amp;utm_source=waze_website,waze_website&amp;utm_medium=lm_share_location",90,,72,"Emergency and Security Division, Jerusalem Municipality",31.74909478061,35.2200234,10 Ben Gavriel St.,,,Talpiyot - Arnona,"https://www.google.com/maps/dir//31.7502131,35.2208839+(10+Ben+Gavriel+St.)"
Talpiot,Public Shelter No.690,https://ul.waze.com/ul?venue_id=23068989.230820967.255811&amp;overview=yes&amp;utm_campaign=default&amp;utm_source=waze_website&amp;utm_medium=lm_share_location,240,,192,"Emergency and Security Division, Jerusalem Municipality",31.74919744,35.2234383,"1 Leib Yaffe St., jerusalem",,,Talpiyot - Arnona,"https://www.google.com/maps/dir//31.74919744,35.2234383+(1+Leib+Yaffe+St.,+jerusalem)"
Talpiot,Public Shelter No.691,"https://ul.waze.com/ul?ll=31.75189020,35.21884540&amp;navigate=yes&amp;utm_campaign=default&amp;utm_source=waze_website&amp;utm_medium=lm_share_location?ll=31.75177480,35.21944020&amp;navigate=yes&amp;zoom=16",440,,352,"Emergency and Security Division, Jerusalem Municipality",31.7520877741159,35.21891075,93 Bethlehem Rd.,,,Talpiyot - Arnona,"https://www.google.com/maps/dir//31.7518902,35.2188454+(93+Bethlehem+Rd.)"
Emek Refaim,Public Shelter No.693,"https://ul.waze.com/ul?place=ChIJ9b5pgtjXAhURt4V9xghL4h4&amp;ll=31.76251050,35.21476740&amp;navigate=yes&amp;utm_campaign=default,default&amp;utm_source=waze_website,waze_website&amp;utm_medium=lm_share_location",170,,136,"Emergency and Security Division, Jerusalem Municipality",31.76274013,35.21468592,9 Yotam St.,,,German Colony,"https://www.google.com/maps/dir//31.7625105,35.2147674+(9+Yotam+St.)"
German Colony,Public Shelter No.695,"https://www.waze.com/ul?ll=31.76225270,35.21485970&amp;navigate=yes&amp;zoom=16",250,,200,Chabad synagogue,31.76231446,35.21556613,2 Amatsiya St.,,,German Colony,"https://www.google.com/maps/dir//31.7622527,35.2148597+(2+Amatsiya+St.)"
Old Katamon,Public Shelter No.696 ,"https://www.waze.com/ul?ll=31.76109180,35.21334270&amp;navigate=yes&amp;zoom=16",164,,131,"Emergency and Security Division, Jerusalem Municipality",31.76129246,35.21325687,3 Reish Lakish St.,,,Gonenim - Katamonim,"https://www.google.com/maps/dir//31.7610918,35.2133427+(3+Reish+Lakish+St.)"
Emek Refaim,Public Shelter No.697,"https://www.waze.com/ul?ll=31.76055700,35.21525000&amp;navigate=yes&amp;zoom=16",160,,128,"Emergency and Security Division, Jerusalem Municipality",31.76069919,35.21523335,27 Yehoshua Bin Nun St.,,,German Colony,"https://www.google.com/maps/dir//31.760557,35.21525+(27+Yehoshua+Bin+Nun+St.)"
Old Katamon&nbsp;,Public Shelter No.703,"https://www.waze.com/ul?ll=31.75604300,35.20517330&amp;navigate=yes&amp;zoom=16",170,,136,"""Zchut Avot"" synagogue",31.7563287,35.20489024,53 Yohanan Ben Zakai St.,,,Gonenim - Katamonim,"https://www.google.com/maps/dir//31.756043,35.2051733+(53+Yohanan+Ben+Zakai+St.)"
Giv'at Havradim (Rassco),Public Shelter No.715,"https://goo.gl/maps/wPX1uqTVmXT2?ll=31.78996270,35.21151270&amp;navigate=yes&amp;zoom=16",180,,144,"Emergency and Security Division, Jerusalem Municipality",31.7613637184524,35.20108822,52 David Shimoni St.,,,Rassco - Givat HaVradim,"https://www.google.com/maps/dir//31.7899627,35.2115127+(52+David+Shimoni+St.)"
Katamon,Public Shelter No.718,"https://ul.waze.com/ul?ll=31.75369450,35.19495770&amp;navigate=yes&amp;utm_campaign=default&amp;utm_source=waze_website&amp;utm_medium=lm_share_location",120,,96,Gonenim Community Administration,31.75450818,35.19382965,6 Rabbi Tzadok St.,,,Gonenim - Katamonim,"https://www.google.com/maps/dir//31.7536945,35.1949577+(6+Rabbi+Tzadok+St.)"
Kiryat HaYovel,Public Shelter No.721,"https://www.waze.com/ul?ll=31.75548920,35.17729790&amp;navigate=yes&amp;zoom=16",130,,104,"Community Administration, Public Health Division, Jerusalem Municipality",31.7554799513654,35.1773231616195,29 Uruguay St.,,,Kiryat Yovel,"https://www.google.com/maps/dir//31.7554892,35.1772979+(29+Uruguay+St.)"
Kiryat HaYovel,Public Shelter No.722,"https://www.waze.com/ul?ll=31.75637470,35.17665450&amp;navigate=yes&amp;zoom=16",130,,104,"Emergency and Security Division, Jerusalem Municipality",31.7563746741139,35.176665232783,67 Avraham Stern St.,,,Kiryat Yovel,"https://www.google.com/maps/dir//31.7563747,35.1766545+(67+Avraham+Stern+St.)"
Kiryat HaYovel,Public Shelter No.723,"https://www.waze.com/ul?ll=31.75340830,35.17668960&amp;navigate=yes&amp;zoom=16",130,,104,"Emergency and Security Division, Jerusalem Municipality",31.75424528,35.17664425,51 Avraham Stern St.,,,"Kiryat Yovel, Accessible Shelter","https://www.google.com/maps/dir//31.7534083,35.1766896+(51+Avraham+Stern+St.)"
Kiryat HaYovel ,Public Shelter No.724,"https://ul.waze.com/ul?place=ChIJdyRIaYrXAhURPNretZHvuoQ&amp;ll=31.75819100,35.17760710&amp;navigate=yes&amp;utm_campaign=default,default&amp;utm_source=waze_website,waze_website&amp;utm_medium=lm_share_location",90,,72,"Emergency and Security Division, Jerusalem Municipality",31.75837336,35.17758566,9 Volta Ilit St.,,,Kiryat Yovel,"https://www.google.com/maps/dir//31.758191,35.1776071+(9+Volta+Ilit+St.)"
Ir Ganim,Public Shelter No.726,"https://www.waze.com/ul?ll=31.75274090,35.17059330&amp;navigate=yes&amp;utm_campaign=default&amp;utm_source=waze_website&amp;utm_medium=lm_share_location",350,,280,"Emergency and Security Division, Jerusalem Municipality",31.75304368,35.17212095,123 HaNurit St.,,,Ir Ganim,"https://www.google.com/maps/dir//31.7527409,35.1705933+(123+HaNurit+St.)"
Eir Ganim ,Public Shelter No.726 A,"https://ul.waze.com/ul?ll=31.75250820,35.17107770&amp;navigate=yes&amp;utm_campaign=default&amp;utm_source=waze_website&amp;utm_medium=lm_share_location",120,,80,"Emergency and Security Division, Jerusalem Municipality",31.75270968,35.17106527,124 HaNurit St.,,,Ir Ganim,"https://www.google.com/maps/dir//31.7525082,35.1710777+(124+HaNurit+St.)"
Eir Ganim ,Public Shelter No.726 B,"https://ul.waze.com/ul?place=ChIJzQ612oHXAhURnoWZamTgVGQ&amp;ll=31.75234100,35.17155200&amp;navigate=yes&amp;utm_campaign=default&amp;utm_source=waze_website&amp;utm_medium=lm_share_location",120,,96,"Emergency and Security Division, Jerusalem Municipality",31.75252344,35.171552,125 HaNurit St.,,,Ir Ganim,"https://www.google.com/maps/dir//31.752341,35.171552+(125+HaNurit+St.)"
Ir Ganim&nbsp;,Public Shelter No.727,"https://www.waze.com/ul?ll=31.75358540,35.17104630&amp;navigate=yes&amp;zoom=16",120,,148,"Emergency and Security Division, Jerusalem Municipality",31.75457225,35.17056825,104 HaNurit St.,,,Ir Ganim,"https://www.google.com/maps/dir//31.7535854,35.1710463+(104+HaNurit+St.)"
Ir Ganim,Public Shelter No.728,"https://www.waze.com/live-map/directions?navigate=yes&amp;to=ll.31.753476,35.1711774",183,,148,"Emergency and Security Division, Jerusalem Municipality",31.754851,35.17017787,102 HaNurit St.,,,Ir Ganim,"https://www.google.com/maps/dir//31.754851,35.17017787+(102+HaNurit+St.)"
Kiryat Menachem,Public Shelter No.729,"https://www.waze.com/ul?ll=31.75593850,35.16587680&amp;navigate=yes&amp;zoom=16",250,,200,Ganim Community Administration,31.75615742,35.1658768,7 Dahomey St.,,,Kiryat Menachem,"https://www.google.com/maps/dir//31.7559385,35.1658768+(7+Dahomey+St.)"
Kiryat Menachem,Public Shelter No.730,"https://ul.waze.com/ul?place=ChIJL0C2OHnXAhURTM92rdLO7H8&amp;ll=31.75653780,35.16683050&amp;navigate=yes&amp;utm_campaign=default,default&amp;utm_source=waze_website,waze_website&amp;utm_medium=lm_share_location",196,,156,"""Magen David"" synagogue",31.7582757415388,35.1667934039464,3 Dahomey St.,,,Kiryat Menachem,"https://www.google.com/maps/dir//31.7565378,35.1668305+(3+Dahomey+St.)"
Kiryat Menachem,Public Shelter No.734,"https://www.waze.com/ul?ll=31.75949260,35.16539450&amp;navigate=yes&amp;zoom=16",130,,104,"Emergency and Security Division, Jerusalem Municipality",31.75967074,35.16537727,17 Iceland St.,,,"Kiryat Menachem, Accessible Shelter","https://www.google.com/maps/dir//31.7594926,35.1653945+(17+Iceland+St.)"
Kiryat Menachem,Public Shelter No.734 A,"https://www.waze.com/ul?ll=31.75949260,35.16539450&amp;navigate=yes&amp;zoom=16",170,,136,"Emergency and Security Division, Jerusalem Municipality",31.75967074,35.16537727,17 Iceland St.,,,"Kiryat Menachem, Accessible Shelter","https://www.google.com/maps/dir//31.7594926,35.1653945+(17+Iceland+St.)"
Kiryat HaYovel,Public Shelter No.736,"https://www.waze.com/ul?ll=31.76052380,35.17046580&amp;navigate=yes&amp;zoom=16",200,,160,Yuvalim Community Administration,31.76074271,35.1704658,8 Chile St.,,,Kiryat Yovel,"https://www.google.com/maps/dir//31.7605238,35.1704658+(8+Chile+St.)"
Kiryat HaYovel,Public Shelter No.737,"https://www.waze.com/ul?ll=31.75984730,35.17217080&amp;navigate=yes&amp;zoom=16",150,,120,"""Mishkan Mordechai"" synagogue",31.76016281,35.1720983,32 Janus Korczak St.,,,"Kiryat Yovel, Accessible Shelter","https://www.google.com/maps/dir//31.7598473,35.1721708+(32+Janus+Korczak+St.)"
Kiryat HaYovel,Public Shelter No.738,"https://www.waze.com/ul?ll=31.76316000,35.17319900&amp;navigate=yes&amp;zoom=16?ll=31.76316000,35.17319900&amp;navigate=yes&amp;zoom=16",90,,72,"""Bnei Akiva"" youth movement",31.76217764,35.17317009,78 Anielewicz St.,,,Kiryat Yovel,"https://www.google.com/maps/dir//31.76316,35.173199+(78+Anielewicz+St.)"
Kiryat HaYovel ,Public Shelter No.739,"https://www.waze.com/ul?ll=31.76593340,35.17605680&amp;navigate=yes&amp;zoom=16",90,,72,"Jerusalem Municipality's Society Division, ""Hashomer Hatzair"" youth movement ",31.76613405,35.17604607,3 Schmorak St.,,,Kiryat Yovel,"https://www.google.com/maps/dir//31.7659334,35.1760568+(3+Schmorak+St.)"
Kiryat HaYovel,Public Shelter No.741,"https://ul.waze.com/ul?place=EidJc3JhZWwgWmFuZ3ZpbGwgU3QgNSwgSmVydXNhbGVtLCBJc3JhZWwiMBIuChQKEglhFh1xotcCFRFtB0gH5wU2kRAFKhQKEgnjZ3TEmNcCFRGlVBnUUJAP9g&amp;ll=31.76717800,35.17830100&amp;navigate=yes&amp;utm_campaign=default&amp;utm_source=waze_website&amp;utm_medium=lm_share_location?ll=31.76739980,35.17825480&amp;navigate=yes&amp;zoom=16",90,Shelter,72,"Emergency and Security Division, Jerusalem Municipality",31.7672235820797,35.1783010039463,5 Yisrael Zangvill St.,,,Kiryat Yovel,"https://www.google.com/maps/dir//31.767178,35.178301+(5+Yisrael+Zangvill+St.)"
Bayit VeGan,Public Shelter No.742,"https://goo.gl/maps/rnoVPRLtCRr?ll=31.75734040,35.22089700&amp;navigate=yes&amp;zoom=16",270,,216,"Emergency and Security Division, Jerusalem Municipality",31.76591212,35.18298046,7 Sha'arei Tora St.,,,Bayit VeGan,"https://www.google.com/maps/dir//31.7573404,35.220897+(7+Sha'arei+Tora+St.)"
Bayit VeGan,Public Shelter No.743,"https://www.waze.com/ul?ll=31.76566530,35.18285900&amp;navigate=yes&amp;zoom=16",115,,92,"Emergency and Security Division, Jerusalem Municipality",31.76926455,35.18451955,39 Bayit VaGan St.,,,Bayit VeGan,"https://www.google.com/maps/dir//31.7656653,35.182859+(39+Bayit+VaGan+St.)"
Beit HaKerem,Public Shelter No.744,"https://ul.waze.com/ul?place=ChIJLcCiqLfXAhUR_SxxejzKonQ&amp;ll=31.77501350,35.19041570&amp;navigate=yes&amp;utm_campaign=default,default&amp;utm_source=waze_website,waze_website&amp;utm_medium=lm_share_location",170,,136,"Emergency and Security Division, Jerusalem Municipality",31.77512976,35.19041839,4 HaBanai St.,,,Beit HaKerem,"https://www.google.com/maps/dir//31.7750135,35.1904157+(4+HaBanai+St.)"
Beit HaKerem,Public Shelter No.745,"https://www.waze.com/ul?ll=31.77748050,35.19221930&amp;navigate=yes&amp;zoom=16?ll=31.77748050,35.19221930&amp;navigate=yes&amp;zoom=16?ll=31.77748050,35.19221930&amp;navigate=yes&amp;zoom=16",170​,,136,"Emergency and Security Division, Jerusalem Municipality",31.7775352,35.1922193,30 HaBanai St.,,,Beit HaKerem,"https://www.google.com/maps/dir//31.7774805,35.1922193+(30+HaBanai+St.)"
Kiryat Moshe,Public Shelter No.748,"https://www.waze.com/ul?ll=31.78791710,35.19552270&amp;navigate=yes&amp;zoom=16",134,,107,"Emergency and Security Division, Jerusalem Municipality",31.78803628,35.19554033,2 Ha'ilui St.    ,,,Kiryat Moshe,"https://www.google.com/maps/dir//31.7879171,35.1955227+(2+Ha'ilui+St.+ + )"
Romema,Public Shelter No.750,"https://ul.waze.com/ul?place=ChIJTyywYDzWAhURQrtyZ5Wv-EE&amp;ll=31.79594850,35.20085500&amp;navigate=yes&amp;utm_campaign=default,default&amp;utm_source=waze_website,waze_website&amp;utm_medium=lm_share_location",130,,104,Romema Community Administration,31.79611804,35.20083957,5 Zichron Ya'akov St.,,,Romema,"https://www.google.com/maps/dir//31.7959485,35.200855+(5+Zichron+Ya'akov+St.)"
Morasha,Public Shelter No.751,"https://ul.waze.com/ul?place=EhtIYUF5aW4gSGV0IFN0IDEwLCBKZXJ1c2FsZW0iMBIuChQKEgkjj043xSkDFRHhsRby5vQIpxAKKhQKEgmrwsBcxSkDFRHpjYkmcKTjkg&amp;ll=31.78297850,35.22627060&amp;navigate=yes&amp;utm_campaign=default,default&amp;utm_source=waze_website,waze_website&amp;utm_medium=lm_share_location",,,80,Musrara photography school ,31.7831014148958,35.2264040677971,10 HaAyin Het St.,,,Musrara - Morasha,"https://www.google.com/maps/dir//31.7829785,35.2262706+(10+HaAyin+Het+St.)"
Morasha,Public Shelter No.752,"https://www.waze.com/ul?ll=31.78133530,35.22679420&amp;navigate=yes&amp;zoom=16",100,Shelter,80,Musrara photography school ,31.7815450384733,35.2267512880258,21 HaAyin Het St.,,,Musrara - Morasha,"https://www.google.com/maps/dir//31.7813353,35.2267942+(21+HaAyin+Het+St.)"
Morasha,Public Shelter No.753,"https://www.waze.com/ul?ll=31.78575030,35.22712230&amp;navigate=yes&amp;zoom=16",100,,80,Eshkolot Community Administration,31.78579592,35.2270983,16 Kheil HaHandasa St.,,,Musrara - Morasha,"https://www.google.com/maps/dir//31.7857503,35.2271223+(16+Kheil+HaHandasa+St.)"
Katamon,Public Shelter No.755,"https://www.waze.com/ul?ll=31.75589460,35.19546320&amp;navigate=yes&amp;zoom=16",100,,80,"Jerusalem Municipality, Culture Department - Artist Victor Raubinov",31.75640292,35.19666642,3 Dov Hoz St.,,,Gonenim - Katamonim,"https://www.google.com/maps/dir//31.7558946,35.1954632+(3+Dov+Hoz+St.)"
Katamon,Public Shelter No.756,https://www.waze.com/he/live-map/directions/סן-מרטין-1-ירושלים?to=place.w.23068990.230624360.540726,100,,80,"""Torah BeTziyon Tzedek"" youth movement",31.75628558,35.1946299,1 San Martin St.,,,Gonenim - Katamonim,"https://www.google.com/maps/dir//31.75628558,35.1946299+(1+San+Martin+St.)"
Katamon,Public Shelter No.757,"https://ul.waze.com/ul?place=EiBIYVNob21lciBTdCA1LCBKZXJ1c2FsZW0sIElzcmFlbCIwEi4KFAoSCRM73wXs1wIVERbJZ_Zebcq9EAUqFAoSCaWRVxPs1wIVEXnE1A94CFS_&amp;ll=31.75551790,35.19782000&amp;navigate=yes&amp;utm_campaign=default&amp;utm_source=waze_website&amp;utm_medium=lm_share_location",100,,80,"Jerusalem Municipality, Department for the Advancement of Youth and Young People (Youth Club)",31.75571857,35.19787365,5 HaShomer St.  ,,,Gonenim - Katamonim,"https://www.google.com/maps/dir//31.7555179,35.19782+(5+HaShomer+St.+ )"
Kiryat Menachem,Public Shelter No.803,"https://ul.waze.com/ul?place=ChIJnX4AwXnXAhURe_DTu4hDhdo&amp;ll=31.75950550,35.16694380&amp;navigate=yes&amp;utm_campaign=default&amp;utm_source=waze_website&amp;utm_medium=lm_share_location?ll=31.76052490,35.16441700&amp;navigate=yes&amp;zoom=16",113,,90,"""Darchei Hayim"" yeshiva (dining room)",31.759541963516,35.1669116174373,17 Henrietta Szold St.,,,Kiryat Menachem,"https://www.google.com/maps/dir//31.7595055,35.1669438+(17+Henrietta+Szold+St.)"
Emek Refaim,Public Shelter No.804,"https://www.waze.com/ul?ll=31.76468940,35.21961580&amp;navigate=yes&amp;zoom=16",100,,80,"Emergency and Security Division, Jerusalem Municipality",31.76488511,35.21965502,8 HaMelits St.,,,German Colony,"https://www.google.com/maps/dir//31.7646894,35.2196158+(8+HaMelits+St.)"
Katamon,Public Shelter No.805,"https://www.waze.com/ul?ll=31.76221390,35.21078690&amp;navigate=yes&amp;zoom=16",370,,296,"Emergency and Security Division, Jerusalem Municipality",31.76235525,35.21082471,21 Yordei HaSira St.,,,Gonenim - Katamonim,"https://www.google.com/maps/dir//31.7622139,35.2107869+(21+Yordei+HaSira+St.)"
Givat Shaul,Public Shelter No.808,"https://www.waze.com/ul?ll=31.79070810,35.19171290&amp;navigate=yes&amp;zoom=16",100,,80,Meitarim Community Administration,31.79066778,35.19194561,27 Yisrael Najara St.,,,Givat Shaul,"https://www.google.com/maps/dir//31.7907081,35.1917129+(27+Yisrael+Najara+St.)"
Rehavia,Public Shelter No.809,"https://www.waze.com/ul?ll=31.77329210,35.21079110&amp;navigate=yes&amp;zoom=16",90,,72,"Emergency and Security Division, Jerusalem Municipality",31.7732564371017,35.2107287751096,9 Rashba St.,,,Rehavia,"https://www.google.com/maps/dir//31.7732921,35.2107911+(9+Rashba+St.)"
Rehavia,Public Shelter No.810,"https://www.waze.com/ul?ll=31.77310490,35.21664660&amp;navigate=yes&amp;zoom=16",150,Shelter,120,"Emergency and Security Division, Jerusalem Municipality",31.77326342,35.21668807,9 Ovadia MeBartenora St.,,,Rehavia,"https://www.google.com/maps/dir//31.7731049,35.2166466+(9+Ovadia+MeBartenora+St.)"
Mekor Baruch,Public Shelter No.812,"https://www.waze.com/ul?ll=31.78771930,35.21514760&amp;navigate=yes&amp;zoom=16",110,,88,"Emergency and Security Division, Jerusalem Municipality",31.7889017633605,35.2074233475444,109 Rashi St.,,,Makor Baruch,"https://www.google.com/maps/dir//31.7877193,35.2151476+(109+Rashi+St.)"
Malha,Public Shelter No.813,"https://www.waze.com/ul?ll=31.75539630,35.18326690&amp;navigate=yes&amp;zoom=16",,,96,"Youth Promotion Department, Jerusalem Municipality",31.7556061,35.1832669,7 Kdoshei Struma St.,,,Malha,"https://www.google.com/maps/dir//31.7553963,35.1832669+(7+Kdoshei+Struma+St.)"
Kiryat HaYovel,Public Shelter No.814,"https://www.waze.com/ul?ll=31.75928850,35.17715950&amp;navigate=yes&amp;zoom=16",130,,104,Yuvalim Community Administration,31.7592547412489,35.1771236732554,3 Volta Ilit St.,,,Kiryat Yovel,"https://www.google.com/maps/dir//31.7592885,35.1771595+(3+Volta+Ilit+St.)"
Kiryat HaYovel,Public Shelter No.814 A,"https://www.waze.com/ul?ll=31.75928850,35.17715950&amp;navigate=yes&amp;zoom=16",130,,104,"""Beit HaKehilot"", Yuvalim Community Administration",31.7592547412489,35.1771236732554,3 Volta Ilit St.,,,Kiryat Yovel,"https://www.google.com/maps/dir//31.7592885,35.1771595+(3+Volta+Ilit+St.)"
Kiryat HaYovel,Public Shelter No.815,"https://ul.waze.com/ul?place=EilBaGFyb24gUmFiaW5vdmljaCBTdCAyLCBKZXJ1c2FsZW0sIElzcmFlbCIwEi4KFAoSCS9L49ae1wIVEdPf6AFdkQ3FEAIqFAoSCSsB47qe1wIVESPv_jfqKhDz&amp;ll=31.76515860,35.17575110&amp;navigate=yes&amp;utm_campaign=default&amp;utm_source=waze_website&amp;utm_medium=lm_share_location?place=EilBaGFyb24gUmFiaW5vdmljaCBTdCAyLCBKZXJ1c2FsZW0sIElzcmFlbCIwEi4KFAoSCS9L49ae1wIVEdPf6AFdkQ3FEAIqFAoSCSsB47qe1wIVESPv_jfqKhDz&amp;ll=31.76515860,35.17575110&amp;navigate=yes&amp;utm_campaign=default&amp;utm_source=waze_website&amp;utm_medium=lm_share_location?ll=31.76214270,35.17558860&amp;navigate=yes&amp;zoom=16",168,,134,music institute,31.76531568,35.1752983,2 Aharon Rabinovich St.,,,Kiryat Yovel,"https://www.google.com/maps/dir//31.7651586,35.1757511+(2+Aharon+Rabinovich+St.)"
Kiryat HaYovel ,Public Shelter No.815 A,"https://www.waze.com/ul?ll=31.76515860,35.17575110&amp;navigate=yes&amp;zoom=16",815 A,,136,"""Yad Avi"" synagogue",31.76531568,35.1752983,2 Aharon Rabinovich St.,,,Kiryat Yovel,"https://www.google.com/maps/dir//31.7651586,35.1757511+(2+Aharon+Rabinovich+St.)"
Rehavia,Public Shelter No.816,"https://ul.waze.com/ul?place=ChIJM9zN09XXAhURTWSaEw6ial8&amp;ll=31.77159700,35.21239370&amp;navigate=yes&amp;utm_campaign=default&amp;utm_source=waze_website&amp;utm_medium=lm_share_location",120,,96,"Holocaust survivors' organization, Jerusalem   ",31.7716032630308,35.2123859949165,50 Azza St.,,,Rehavia,"https://www.google.com/maps/dir//31.771597,35.2123937+(50+Azza+St.)"
Katamon,Public Shelter No.817,"https://www.waze.com/ul?ll=31.76059170,35.21227390&amp;navigate=yes&amp;zoom=16",,,96,Ginot Ha'Ir Community Administration,31.7607394299226,35.2122816187098,7 Yehoshua Ben Gamla St.,,,Gonenim - Katamonim,"https://www.google.com/maps/dir//31.7605917,35.2122739+(7+Yehoshua+Ben+Gamla+St.)"
Mahane Yehuda,Public Shelter No.821,"https://www.waze.com/ul?ll=31.78316880,35.21364550&amp;navigate=yes&amp;zoom=16",120,,96,Lev Ha'Ir Community Administration,31.78299762,35.2136024,24 Einayim LaMishpat St.,,,City Center,"https://www.google.com/maps/dir//31.7831688,35.2136455+(24+Einayim+LaMishpat+St.)"
Katamon,Public Shelter No.824,"https://www.waze.com/ul?ll=31.75522360,35.20861460&amp;navigate=yes&amp;zoom=16",150,,120,"Mikro Theater, Culture Division, Jerusalem Municipality",31.7554334,35.2086146,31 Rashbag St.,,,Gonenim - Katamonim,"https://www.google.com/maps/dir//31.7552236,35.2086146+(31+Rashbag+St.)"
Katamon,Public Shelter No.825,"https://ul.waze.com/ul?place=EilFbGF6YXIgQmVuIFlhJ2lyIFN0IDI0LCBKZXJ1c2FsZW0sIElzcmFlbCIwEi4KFAoSCZtSCD3v1wIVEezBKQjiwp8LEBgqFAoSCW8IhzDv1wIVEbvxK7Yt_QLL&amp;ll=31.75342720,35.20165800&amp;navigate=yes&amp;utm_campaign=default&amp;utm_source=waze_website&amp;utm_medium=lm_share_location",150,,120,"""Ariel"" youth movement",31.75360963,35.20166873,24 Elazar Ben Yair St.  ,,,Gonenim - Katamonim,"https://www.google.com/maps/dir//31.7534272,35.201658+(24+Elazar+Ben+Yair+St.+ )"
Mea She'arim,Public Shelter No.826,"https://ul.waze.com/ul?place=EiRPdHNhciBIYVNmYXJpbSBTdCwgSmVydXNhbGVtLCBJc3JhZWwiLiosChQKEgmXz7dR2ykDFRH-Qe0gKLye_hIUChIJS_zBNNbXAhURy-FuRT5ib9k&amp;ll=31.78663400,35.22526100&amp;navigate=yes&amp;utm_campaign=default&amp;utm_source=waze_website&amp;utm_medium=lm_share_location",150,,120,"""Moreshet HaNahal"" yeshiva",31.78649294,35.2253953,6 Otsar HaSfarim St.,,,Mea Shearim,"https://www.google.com/maps/dir//31.786634,35.225261+(6+Otsar+HaSfarim+St.)"
Kiryat Menachem,Public Shelter No.827,"https://ul.waze.com/ul?ll=31.75898740,35.16883090&amp;navigate=yes&amp;utm_campaign=default&amp;utm_source=waze_website&amp;utm_medium=lm_share_location",,,80,"""Ariel"" youth movement",31.75898,35.16878,4 Mexico St.,,,Kiryat Menachem,"https://www.google.com/maps/dir//31.7589874,35.1688309+(4+Mexico+St.)"
Katamon,Public Shelter No.828,"https://www.waze.com/ul?ll=31.75991040,35.21317850&amp;navigate=yes&amp;zoom=16",100,,80,boxing club,31.75971235,35.21328746,10 HaRav Hasda St.,,,Gonenim - Katamonim,"https://www.google.com/maps/dir//31.7599104,35.2131785+(10+HaRav+Hasda+St.)"
Ir Ganim,Public Shelter No.829,"https://www.waze.com/ul?ll=31.75357350,35.16665050&amp;navigate=yes&amp;zoom=16",100,,32,"""Chai Tayeb"" synagogue",31.75350048,35.166039,9 HaRakefet St.,,,Ir Ganim,"https://www.google.com/maps/dir//31.7535735,35.1666505+(9+HaRakefet+St.)"
Geula,Public Shelter No.830,"https://goo.gl/maps/xCPoFCgHhwo?ll=31.78767970,35.21894860&amp;navigate=yes&amp;zoom=16",100,,80,Bucharim Community Administration,31.7915136,35.21721693,25 Tsfanya St.,,,Geula,"https://www.google.com/maps/dir//31.7876797,35.2189486+(25+Tsfanya+St.)"
Katamon,Public Shelter No.831,"https://www.waze.com/ul?ll=31.75589460,35.19546320&amp;navigate=yes&amp;zoom=16",150,,120,"Keshet Arts, Culture Division, Jerusalem Municipality",31.7562636,35.1954492,7 Dov Hoz St.,,,Gonenim - Katamonim,"https://www.google.com/maps/dir//31.7558946,35.1954632+(7+Dov+Hoz+St.)"
Rehavia,Public Shelter No.835,"https://www.waze.com/ul?ll=31.77225570,35.21615190&amp;navigate=yes&amp;zoom=16",190,,152,"Emergency and Security Division, Jerusalem Municipality",31.7722626584943,35.2158986886004,18 Arlozorov St.,,,Rehavia,"https://www.google.com/maps/dir//31.7722557,35.2161519+(18+Arlozorov+St.)"
Baka,Public Shelter No.836,"https://www.waze.com/ul?ll=31.75973420,35.21916510&amp;navigate=yes&amp;zoom=16",100,,80,"Emergency and Security Division, Jerusalem Municipality",31.75968621,35.21989257,27 Menashe St.,,,Baka,"https://www.google.com/maps/dir//31.7597342,35.2191651+(27+Menashe+St.)"
Mekor Baruch,Public Shelter No.839,"https://www.waze.com/ul?ll=31.78756880,35.20890510&amp;navigate=yes&amp;zoom=16",100,,80,"Emergency and Security Division, Jerusalem Municipality",31.78743779,35.16634432,14 Tashbatz St.,,,Makor Baruch,"https://www.google.com/maps/dir//31.7875688,35.2089051+(14+Tashbatz+St.)"
,Public Shelter No.840,"https://www.waze.com/ul?ll=31.75297450,35.16710100&amp;navigate=yes&amp;zoom=16",100,shelter,32,"""Beit Chabad"" building",31.75303908,35.16703205,70 Costa Rica St.,,,"Ir Ganim, Accessible Shelter","https://www.google.com/maps/dir//31.7529745,35.167101+(70+Costa+Rica+St.)"
Katamon,Public Shelter No.842,"https://www.waze.com/ul?ll=31.75301240,35.19558420&amp;navigate=yes&amp;zoom=16",174,,139,synagogue for Israelis of Ethiopian origin ,31.75311816,35.19538627,8 Bar Yochai St.,,,Gonenim - Katamonim,"https://www.google.com/maps/dir//31.7530124,35.1955842+(8+Bar+Yochai+St.)"
Ir Ganim,Public Shelter No.901,"https://ul.waze.com/ul?place=EiBJY2VsYW5kIFN0IDEzLCBKZXJ1c2FsZW0sIElzcmFlbCIwEi4KFAoSCVmA0b551wIVEehdh4WAcgmhEA0qFAoSCY9mtXh51wIVETGWJsiPzKKR&amp;ll=31.75910710,35.16652080&amp;navigate=yes&amp;utm_campaign=default&amp;utm_source=waze_website&amp;utm_medium=lm_share_location",150,,120,"""David Moshe"" synagogue",31.75927128,35.16653153,13 Iceland St ,,,Ir Ganim,"https://www.google.com/maps/dir//31.7591071,35.1665208+(13+Iceland+St+)"
Ir Ganim,Public Shelter No.902,"https://www.waze.com/ul?ll=31.75446060,35.16927980&amp;navigate=yes&amp;zoom=16",250,,200,"Ezra Movement, Society Division, Jerusalem Municipality",31.75487408,35.16903666,29 HaNurit St.,,,Ir Ganim,"https://www.google.com/maps/dir//31.7544606,35.1692798+(29+HaNurit+St.)"
Ein Karem ,Public Shelter No.903,https://ul.waze.com/ul?venue_id=23068990.230427753.362373&amp;overview=yes&amp;utm_campaign=default&amp;utm_source=waze_website&amp;utm_medium=lm_share_location,120,,96,"Artists' studio, Ein Kerem Community Center",31.76842599,35.16359315,82 Homat HaTzalafim St.,,,Ein Kerem,"https://www.google.com/maps/dir//31.76842599,35.16359315+(82+Homat+HaTzalafim+St.)"
Geula,Public Shelter No.904,"https://www.waze.com/ul?ll=31.78996270,35.21151270&amp;navigate=yes&amp;zoom=16",125,,100,"Sanitation Division, Jerusalem Municipality",31.79038842,35.2112935,7 HaZayit St.,,,Geula,"https://www.google.com/maps/dir//31.7899627,35.2115127+(7+HaZayit+St.)"
Katamon,Public Shelter No.906,"https://ul.waze.com/ul?preview_venue_id=23068990.230689895.203291&amp;navigate=yes&amp;utm_campaign=default&amp;utm_source=waze_website&amp;utm_medium=lm_share_location?ll=31.75330350,35.19301290&amp;navigate=yes&amp;zoom=16",100,,80,"""Gal Avraham"" synagogue",31.75430501,35.19884543,2 Bar Yochai St.,,,Gonenim - Katamonim,"https://www.google.com/maps/dir//31.7533035,35.1930129+(2+Bar+Yochai+St.)"
Mekor Baruch,Public Shelter No.909,"https://www.waze.com/ul?ll=31.78975390,35.20947140&amp;navigate=yes&amp;zoom=16",120,,96,"Toar Gallery, Culture Division, Jerusalem Municipality",31.7887720246485,35.2094209745319,7 Yehuda HaMaccabi St.,,,Makor Baruch,"https://www.google.com/maps/dir//31.7897539,35.2094714+(7+Yehuda+HaMaccabi+St.)"
Bukharim ,Public Shelter No.910,"https://ul.waze.com/ul?ll=31.79114300,35.21504600&amp;navigate=yes&amp;utm_campaign=default&amp;utm_source=waze_website&amp;utm_medium=lm_share_location?ll=31.79162200,35.21488460&amp;navigate=yes&amp;zoom=16",100,,80,"Karlin Hassidic community's ""Beit Bracha""",31.79171933,35.21486308,Ovadya St 22,,,Beit Israel - Bucharim,"https://www.google.com/maps/dir//31.791143,35.215046+(Ovadya+St+22)"
Old Katamon,Public Shelter No.923,"https://www.waze.com/ul?ll=31.76182730,35.21393840&amp;navigate=yes&amp;zoom=16",100,,80,"Emergency and Security Division, Jerusalem Municipality ","31.76185405030013,",35.21380463,15 Elazar HaModa'i St.,,,Gonenim - Katamonim,"https://www.google.com/maps/dir//31.7618273,35.2139384+(15+Elazar+HaModa'i+St.)"
Zikhron Moshe,Public Shelter No.928,"https://www.waze.com/ul?ll=31.78725650,35.21731920&amp;navigate=yes&amp;zoom=16",130,,104,"""Or Leah"" organization",31.78741269,35.21757937,8 Pri Hadash St.,,,City Center,"https://www.google.com/maps/dir//31.7872565,35.2173192+(8+Pri+Hadash+St.)"
City Center,Public Shelter No.932,"https://ul.waze.com/ul?place=EiFIYUdpbGJvYSBTdCAzOCwgSmVydXNhbGVtLCBJc3JhZWwiMBIuChQKEgkhztCxKdYCFRHA7K3epOigOxAmKhQKEglpw1uyKdYCFRFW4en6mwII9Q&amp;ll=31.78300580,35.21286900&amp;navigate=yes&amp;utm_campaign=default&amp;utm_source=waze_website&amp;utm_medium=lm_share_location",100,,80,Lev Ha'Ir Community Administration,31.78310575,35.21285728,38 HaGilboa St.,,,City Center,"https://www.google.com/maps/dir//31.7830058,35.212869+(38+HaGilboa+St.)"
Romema,Public Shelter No.933,"https://www.waze.com/ul?ll=31.79611500,35.19930460&amp;navigate=yes&amp;zoom=16",100,,80,"""Lev Malka"" organization",31.79601192,35.1991455,38 HaMem Gimel St.,,,Romema,"https://www.google.com/maps/dir//31.796115,35.1993046+(38+HaMem+Gimel+St.)"
Mahane Yehuda,Public Shelter No.935,"https://www.waze.com/ul?ll=31.78237690,35.21106920&amp;navigate=yes&amp;zoom=16",170,,136,community synagogue,31.7827654,35.21055875,28 Be'er Sheva St.,,,City Center,"https://www.google.com/maps/dir//31.7823769,35.2110692+(28+Be'er+Sheva+St.)"
Old Katamon,Public Shelter No.937,"https://www.waze.com/ul?ll=31.76147420,35.20966070&amp;navigate=yes&amp;zoom=16",100,,80,"Youth Promotion Department, Education Division, Jerusalem Municipality",31.76174784,35.20969289,38 Hizkiyahu HaMelech St.,,,Gonenim - Katamonim,"https://www.google.com/maps/dir//31.7614742,35.2096607+(38+Hizkiyahu+HaMelech+St.)"
,Public Shelter No.939,"https://www.waze.com/ul?ll=31.77201690,35.20105720&amp;navigate=yes&amp;zoom=16",100,shelter,80,"Koom-Koom Theatre, Culture Division, Jerusalem Municipality ",31.77218105,35.20100356,17 Neve Sha'anan St.,,,"Neve Shaanan, Accessible Shelter","https://www.google.com/maps/dir//31.7720169,35.2010572+(17+Neve+Sha'anan+St.)"
Talpiot,Public Shelter No.940,"https://ul.waze.com/ul?ll=31.75058740,35.21983800&amp;navigate=yes&amp;utm_campaign=default&amp;utm_source=waze_website&amp;utm_medium=lm_share_location?ll=31.75058740,35.21983800&amp;navigate=yes&amp;zoom=16?ll=31.75058740,35.21983800&amp;navigate=yes&amp;zoom=16",100,,80,"""Ezra"" youth movement",31.7511988668086,35.22008993,17 Shalom Yehuda St.,,,Talpiyot - Arnona,"https://www.google.com/maps/dir//31.7505874,35.219838+(17+Shalom+Yehuda+St.)"
Giv'at HaVradim (Rassco) ,Public Shelter No.949,"https://ul.waze.com/ul?place=ChIJ_7CQUtrXAhURolBdWhnilZE&amp;ll=31.76542790,35.20724910&amp;navigate=yes&amp;utm_campaign=default&amp;utm_source=waze_website&amp;utm_medium=lm_share_location",100,,80,Ginot Ha'Ir Community Administration,31.7654734829433,35.20729202,33 HaTayasim St.,,,Rassco - Givat HaVradim,"https://www.google.com/maps/dir//31.7654279,35.2072491+(33+HaTayasim+St.)"
Shmuel HaNavi,Public Shelter No.957,"https://www.waze.com/ul?ll=31.79442760,35.21904880&amp;navigate=yes&amp;zoom=16?ll=31.79442760,35.21904880&amp;navigate=yes&amp;zoom=16",450,,360,"""Agudat Or HaTzafon"" synagogue",31.7946169685596,35.2189116,19 Avinadav St.,,,Shmuel HaNavi,"https://www.google.com/maps/dir//31.7944276,35.2190488+(19+Avinadav+St.)"
Mahane Yehuda,Public Shelter No.961,"https://www.waze.com/ul?ll=31.78054400,35.21113920&amp;navigate=yes&amp;zoom=16",100,,80,"""Ariel"" youth movement ",31.78076286,35.21112847,17 Even Sapir St.,,,City Center,"https://www.google.com/maps/dir//31.780544,35.2111392+(17+Even+Sapir+St.)"
Kiryat HaYovel,Public Shelter No.963,"https://www.waze.com/ul?ll=31.76588580,35.17830050&amp;navigate=yes&amp;zoom=16",100,,80,"""Siach Yisrael"" synagogue",31.7658358392997,35.1773224039463,11 Yisrael Zangvill St.,,,Kiryat Yovel,"https://www.google.com/maps/dir//31.7658858,35.1783005+(11+Yisrael+Zangvill+St.)"
Kiryat HaYovel,Public Shelter No.964,"https://ul.waze.com/ul?place=ChIJIZwyUYPXAhURT1-jX4DK4Oc&amp;ll=31.75728610,35.17602160&amp;navigate=yes&amp;utm_campaign=default&amp;utm_source=waze_website&amp;utm_medium=lm_share_location?ll=31.75752170,35.17606360&amp;navigate=yes&amp;zoom=16",,,144,"Emergency and Security Division, Jerusalem Municipality",31.7572860741135,35.1760216039467,8 Meir Grunwald St.,,,Kiryat Yovel,"https://www.google.com/maps/dir//31.7572861,35.1760216+(8+Meir+Grunwald+St.)"
Katamon,Public Shelter No.965,"https://www.waze.com/ul?ll=31.75388930,35.19664720&amp;navigate=yes&amp;zoom=16",100,,80,"""Havatzelet HaSharon"" synagogue",31.75373649,35.19636583,7 Yitzhak Sadeh St.,,,Gonenim - Katamonim,"https://www.google.com/maps/dir//31.7538893,35.1966472+(7+Yitzhak+Sadeh+St.)"
Katamon,Public Shelter No.967,"https://ul.waze.com/ul?ll=31.75851250,35.20964050&amp;navigate=yes&amp;utm_campaign=default&amp;utm_source=waze_website&amp;utm_medium=lm_share_location?ll=31.75795620,35.20953250&amp;navigate=yes&amp;zoom=16",100,,80,"""Ariel"" movement",31.75888667,35.209264,7 Antignos St.,,,Gonenim - Katamonim,"https://www.google.com/maps/dir//31.7585125,35.2096405+(7+Antignos+St.)"
Katamon,Public Shelter No.969- Eligible,"https://www.waze.com/ul?ll=31.75672320,35.20875450&amp;navigate=yes&amp;zoom=16",100,,80,"Sports Division, Jerusalem Municipality ",31.75687008,35.20875076,16 Yossi Ben Yo'ezer St.,,,Gonenim - Katamonim,"https://www.google.com/maps/dir//31.7567232,35.2087545+(16+Yossi+Ben+Yo'ezer+St.)"
Kiryat Shmuel,Public Shelter No.971,"https://www.waze.com/ul?ll=31.76789020,35.21214120&amp;navigate=yes&amp;zoom=16?ll=31.76789020,35.21214120&amp;navigate=yes&amp;zoom=16",100,,80,Ginot Ha'ir Community Administration ,31.7678482602372,35.2120205039462,16 HaPalmach St.,,,"Kiryat Shmuel, Accessible Shelter","https://www.google.com/maps/dir//31.7678902,35.2121412+(16+HaPalmach+St.)"
Rehavia ,Public Shelter No.972,"https://www.waze.com/ul?ll=31.77618920,35.21420920&amp;navigate=yes&amp;zoom=16",100,,80,"""Beit Yael"", Culture Division, Jerusalem Municipality ",31.7762808948042,35.2142244,26 AlHarizi St.,,,Rehavia,"https://www.google.com/maps/dir//31.7761892,35.2142092+(26+AlHarizi+St.)"
City Center,Public Shelter No.973,"https://www.waze.com/ul?ll=31.77962700,35.21560500&amp;navigate=yes&amp;zoom=16",100,,80,"Drama school, Youth Promotion Department, Education Division, Municipality of Jerusalem ",31.77791035,35.21665559,5 HaRav Aviyada St.,,,City Center,"https://www.google.com/maps/dir//31.779627,35.215605+(5+HaRav+Aviyada+St.)"
City Center,Public Shelter No.974,"https://www.waze.com/ul?ll=31.77795129,35.21585941&amp;navigate=yes&amp;zoom=17",100,,80,"Youth Promotion Department, Education Division, Jerusalem Municipality",31.7798829422441,35.2147312,9 Shmuel Hanagid St.,,,City Center,"https://www.google.com/maps/dir//31.77795129,35.21585941+(9+Shmuel+Hanagid+St.)"
Romema,Public Shelter No.975 A,"https://www.waze.com/ul?ll=31.79447700,35.20174810&amp;navigate=yes&amp;zoom=16",50,,40,"Emergency and Security Division, Jerusalem Municipality",31.7944769740967,35.2017481039452,15 Zichron Ya'akov St.,,,Romema,"https://www.google.com/maps/dir//31.794477,35.2017481+(15+Zichron+Ya'akov+St.)"
Romema,Public Shelter No.975 B,"https://www.waze.com/ul?ll=31.79422280,35.20198890&amp;navigate=yes&amp;zoom=16",50,,40,"""Drachei Miryam"" organization",31.79422544982,35.20202255,17 Zichron Ya'akov St.,,,Romema,"https://www.google.com/maps/dir//31.7942228,35.2019889+(17+Zichron+Ya'akov+St.)"
Romema,Public Shelter No.975 C,"https://www.waze.com/ul?ll=31.79395480,35.20222220&amp;navigate=yes&amp;zoom=16",50,,40,"Lev Malka"" organization",31.793954774097,35.202190017436,19 Zichron Ya'akov St.,,,Romema,"https://www.google.com/maps/dir//31.7939548,35.2022222+(19+Zichron+Ya'akov+St.)"
Romema,Public Shelter No.975 D,"https://www.waze.com/ul?ll=31.79351730,35.20220770&amp;navigate=yes&amp;zoom=16",50,,40,"Emergency and Security Division, Jerusalem Municipality",31.7935355120931,35.2021969751088,21 Zichron Ya'akov St.,,,Romema,"https://www.google.com/maps/dir//31.7935173,35.2022077+(21+Zichron+Ya'akov+St.)"
,Public Shelter No.976,"https://ul.waze.com/ul?place=ChIJMUAAJ5PXAhURSk1hhwH4ldk&amp;ll=31.75531500,35.19199900&amp;navigate=yes&amp;utm_campaign=default&amp;utm_source=waze_website&amp;utm_medium=lm_share_location?ll=31.75548000,35.19248900&amp;navigate=yes&amp;zoom=16",50,shelter,40,organization of Israelis of Kurdish origin,31.75536971,35.19197755,41 Avraham Elmaliach St.,,,"Gonenim - Katamonim, Accessible Shelter","https://www.google.com/maps/dir//31.755315,35.191999+(41+Avraham+Elmaliach+St.)"
Kiryat Moshe,Public Shelter No.977,"https://ul.waze.com/ul?place=ChIJ3ZUHpDbWAhURHIIWFfInH14&amp;ll=31.78621350,35.19733430&amp;navigate=yes&amp;utm_campaign=default&amp;utm_source=waze_website&amp;utm_medium=lm_share_location?ll=31.78662370,35.19703000&amp;navigate=yes&amp;zoom=16",100,,80,Meitarim Community Administration,31.78641411,35.1973343,23 Gat St.,,,Kiryat Moshe,"https://www.google.com/maps/dir//31.7862135,35.1973343+(23+Gat+St.)"
Kiryat Moshe,Public Shelter No.978,https://ul.waze.com/ul?venue_id=23068990.230689899.323781&amp;overview=yes&amp;utm_campaign=default&amp;utm_source=waze_website&amp;utm_medium=lm_share_location,100,,80,Meitarim Community Administration,31.7875374957523,35.1955500885998,13 HaRav Tzvi Yehuda St.,,,Kiryat Moshe,"https://www.google.com/maps/dir//31.7875374957523,35.1955500885998+(13+HaRav+Tzvi+Yehuda+St.)"
Romema,Public Shelter No.979,"https://www.waze.com/ul?ll=31.79510120,35.20107200&amp;navigate=yes&amp;zoom=16",100,,80,"""Hanichei HaYeshivot Romema"" synagogue",31.7950738175648,35.2010827327815,10 Zichron Ya'akov St.,,,"Romema, Accessible Shelter","https://www.google.com/maps/dir//31.7951012,35.201072+(10+Zichron+Ya'akov+St.)"
Baka,Public Shelter No.980,"https://www.waze.com/ul?ll=31.75523270,35.21645890&amp;navigate=yes&amp;zoom=16",100,,80,"Emergency and Security Division, Jerusalem Municipality",31.7551778,35.21700545,22 ​Rivka St.,,,Baka,"https://www.google.com/maps/dir//31.7552327,35.2164589+(22+​Rivka+St.)"
Katamon,Public Shelter No.981,"https://ul.waze.com/ul?place=ChIJXektxJLXAhURWAH2ZCVVPQs&amp;ll=31.75430510,35.19200820&amp;navigate=yes&amp;utm_campaign=default&amp;utm_source=waze_website&amp;utm_medium=lm_share_location?ll=31.75481470,35.19195140&amp;navigate=yes&amp;zoom=16",50,,40,"""Tzofim"", Society Division, Jerusalem Municipality",31.7543415655686,35.1920082039468,27 Avraham Elmaliach St.,,,Gonenim - Katamonim,"https://www.google.com/maps/dir//31.7543051,35.1920082+(27+Avraham+Elmaliach+St.)"
Kiryat HaYovel,Public Shelter No.983,"https://www.waze.com/ul?ll=31.76654040,35.17699570&amp;navigate=yes&amp;zoom=16",100,,80,"""Ezra"" youth movement",31.7665768607391,35.1770386192918,10 Gordon St.,,,"Kiryat Yovel, Accessible Shelter","https://www.google.com/maps/dir//31.7665404,35.1769957+(10+Gordon+St.)"
Baka,Public Shelter No.984,"https://www.waze.com/ul?ll=31.76170680,35.22127960&amp;navigate=yes&amp;zoom=16",160,,128,"Jerusalem Municipality, Culture Department, Beit Yael",31.76190746,35.2212796,11 Ya'el St.,,,Baka,"https://www.google.com/maps/dir//31.7617068,35.2212796+(11+Ya'el+St.)"
City Center,Public Shelter No.985,"https://www.waze.com/ul?ll=31.78526160,35.21873190&amp;navigate=yes&amp;zoom=16",50,,40,"""Helek MiMeni Bracha VeHesed"" organization (assistance to the needy)",31.78547133,35.21869972,13 Strauss St.,,,City Center,"https://www.google.com/maps/dir//31.7852616,35.2187319+(13+Strauss+St.)"
Katamon,Public Shelter No.987,"https://ul.waze.com/ul?place=EjBSYWJhbiBZb2hhbmFuIGJlbiBaYWthaSBTdCAzOCwgSmVydXNhbGVtLCBJc3JhZWwiMBIuChQKEgmdO9jZ3dcCFRELYi1aT5fa_xAmKhQKEgkfJuoF3tcCFRFvPt8-yjbViA&amp;ll=31.75924130,35.20897780&amp;navigate=yes&amp;utm_campaign=default&amp;utm_source=waze_website&amp;utm_medium=lm_share_location",100,,80,"""Ohel Moshe"" synagogue",31.7592267741127,35.2089806039466,38 Yohanan Ben Zakai St.,,,Gonenim - Katamonim,"https://www.google.com/maps/dir//31.7592413,35.2089778+(38+Yohanan+Ben+Zakai+St.)"
,Public Shelter No. 991,"https://ul.waze.com/ul?place=EiZBdnJhaGFtIFNoYXJvbiBTdCAyLCBKZXJ1c2FsZW0sIElzcmFlbCIwEi4KFAoSCfGOul6e1wIVEbbsRYsnkxleEAIqFAoSCX05XFme1wIVEQtMU9AWQYOP&amp;ll=31.76390810,35.17301330&amp;navigate=yes&amp;utm_campaign=default&amp;utm_source=waze_website&amp;utm_medium=lm_share_location",,Shelter,,,31.7641269998997,35.1730133034474,"Avraham Sharon  2, Jerusalem",,,Kiryat Yovel,"https://www.google.com/maps/dir//31.7639081,35.1730133+(Avraham+Sharon +2,+Jerusalem)"
Kiryat HaYovel,Public Shelter No.992,"https://ul.waze.com/ul?place=EjVNYSdhbG90IFlpdHNoYWsgVHN2aSBFdGluZ2VyIFN0IDE5LCBKZXJ1c2FsZW0sIElzcmFlbCIwEi4KFAoSCSOm1k2Z1wIVEeud_nszKpK9EBMqFAoSCenJ-zWZ1wIVEfz1iyEpg8r-&amp;ll=31.76325670,35.17748120&amp;navigate=yes&amp;utm_campaign=default&amp;utm_source=waze_website&amp;utm_medium=lm_share_location?ll=31.76306080,35.17719380&amp;navigate=yes&amp;zoom=16",100,,80,"Emergency and Security Division, Jerusalem Municipality",31.7632566741108,35.1774812039463,19 Etinger St.,,,Kiryat Yovel,"https://www.google.com/maps/dir//31.7632567,35.1774812+(19+Etinger+St.)"
Kiryat HaYovel,Public Shelter No.993,"https://www.waze.com/ul?ll=31.76336200,35.17455000&amp;navigate=yes&amp;zoom=16?ll=31.76336200,35.17455000&amp;navigate=yes&amp;zoom=16",100,,80,"Mashu-Mashu Theatre, Culture Division, Jerusalem Municipality",31.76409128,35.1746754,3 Kleinman St.,,,Kiryat Yovel,"https://www.google.com/maps/dir//31.763362,35.17455+(3+Kleinman+St.)"
Baka,Public Shelter No.995,"https://www.waze.com/ul?ll=31.75734040,35.22089700&amp;navigate=yes&amp;zoom=16",100,,80,Baka Community Administration,31.75755932,35.220897,3 Levi St.,,,Baka,"https://www.google.com/maps/dir//31.7573404,35.220897+(3+Levi+St.)"
French Hill,Public Shelter No.998,"https://www.waze.com/ul?ll=31.80554010,35.24143650&amp;navigate=yes&amp;zoom=16",100,,80,"Emergency and Security Division, Jerusalem Municipality",31.80571068,35.24163187,6 Aba Berdichev St.,,,French Hill,"https://www.google.com/maps/dir//31.8055401,35.2414365+(6+Aba+Berdichev+St.)"
